ONEWEB-0395             
1 50475U 21132G   26027.47578162 -.00000348  00000+0 -10174-2 0  9998
2 50475  87.8812  49.0789 0001977  99.0277 261.1074 13.11416968197279
ONEWEB-0396             
1 50476U 21132H   26027.49210042  .00000100  00000+0  21999-3 0  9993
2 50476  87.9205   3.3822 0001931  81.8370 278.2981 13.18686562203091
ONEWEB-0397             
1 50477U 21132J   26027.43105631 -.00000033  00000+0 -11763-3 0  9990
2 50477  87.9206   3.3946 0001923  78.2333 281.9015 13.18687224203062
ONEWEB-0398             
1 50478U 21132K   26027.44358089  .00000171  00000+0  44593-3 0  9997
2 50478  87.8818  49.0622 0001902 103.9769 256.1570 13.11413727197166
ONEWEB-0399             
1 50479U 21132L   26027.50632717  .00000562  00000+0  15512-2 0  9990
2 50479  87.8815  49.0605 0002257  84.7251 275.4134 13.11415758197167
ONEWEB-0400             
1 50480U 21132M   26027.48550086  .00000051  00000+0  95818-4 0  9999
2 50480  87.9203   3.3740 0001849  89.0655 271.0689 13.18686367203063
ONEWEB-0401             
1 50481U 21132N   26027.45413465 -.00000053  00000+0 -16679-3 0  9997
2 50481  87.9199   3.3760 0001719  77.6378 282.4947 13.18688166203063
ONEWEB-0402             
1 50482U 21132P   26027.41786557  .00000055  00000+0  10628-3 0  9997
2 50482  87.9204   3.3753 0001599  69.2248 290.9055 13.18685744203087
